SPACEMOBILE-004         
1 61049U 24163E   26202.27362846  .00015015  00000+0  68855-3 0  9992
2 61049  52.9720 152.1723 0005157 251.3714 108.6720 15.20649512102955
CZ-8A R/B               
1 66004U 25231K   26202.57014866 -.00000077  00000+0  31379-4 0  9999
2 66004  50.0030 253.0366 0116541 345.0655  14.6831 14.30163511 39861
SZ-21 MODULE            
1 66515U 25246C   26202.07760244  .00041374  00000+0  22381-3 0  9991
2 66515  41.4721  95.7888 0009343 257.2941 102.6860 15.79230958 39091
SPACEMOBILE-006         
1 67232U 25309A   26202.19960577  .00002319  00000+0  12568-3 0  9994
2 67232  52.9948 175.8266 0009504 235.7559 124.2535 15.18677771 31767
SPACEMOBILE-008         
1 69589U 26139A   26202.42904412  .00000319  00000+0  34924-4 0  9994
2 69589  52.9953 107.1053 0005297  71.2526 288.9040 15.12809290  5165
SPACEMOBILE-009         
1 69590U 26139B   26202.43143916  .00001219  00000+0  85768-4 0  9993
2 69590  52.9944 107.1141 0005567  67.5981 292.5599 15.12709273  5168
SPACEMOBILE-010         
1 69591U 26139C   26202.43522734  .00001174  00000+0  83597-4 0  9991
2 69591  52.9950 107.1407 0005561  60.2042 299.9501 15.12546197  5172
